{"type": "FeatureCollection", "features": [ {"type": "Feature", "properties": {"norad_id": 66989, "name": "CZ-4B R/B", "group": "last-30-days", "lat": -1.5195674383769335, "lon": -115.85428813147304, "alt_km": 432.3029409050778, "timestamp": "2025-12-24T03:53:28.364105+00:00", "meta": {"OBJECT_NAME": "CZ-4B R/B", "OBJECT_ID": "2025-289B", "EPOCH": "2025-12-23T19:27:47.687904", "MEAN_MOTION": 15.69881193, "ECCENTRICITY": 0.0140658, "INCLINATION": 97.5236, "RA_OF_ASC_NODE": 63.9689, "ARG_OF_PERICENTER": 320.9393, "MEAN_ANOMALY": 38.1775, "EPHEMERIS_TYPE": 0, "CLASSIFICATION_TYPE": "U", "NORAD_CAT_ID": 66989, "ELEMENT_SET_NO": 999, "REV_AT_EPOCH": 230, "BSTAR": 0.00058914, "MEAN_MOTION_DOT": 0.00125703, "MEAN_MOTION_DDOT": 6.8447e-06}, "tle": {"line1": "1 66989U 25289B   25357.81096861  .00125703  68447-5  58914-3 0  9997", "line2": "2 66989  97.5236  63.9689 0140658 320.9393  38.1775 15.69881193  2303"}}, "geometry": {"type": "Point", "coordinates": [-115.85428813147304, -1.5195674383769335]}}, {"type": "Feature", "properties": {"norad_id": 66990, "name": "TJS-22", "group": "last-30-days", "lat": -1.8196488700649707, "lon": -142.26929457414252, "alt_km": 35777.180206410994, "timestamp": "2025-12-24T03:53:28.364117+00:00", "meta": {"OBJECT_NAME": "TJS-22", "OBJECT_ID": "2025-290A", "EPOCH": "2025-12-23T08:28:28.739424", "MEAN_MOTION": 1.00271237, "ECCENTRICITY": 0.000342, "INCLINATION": 1.9618, "RA_OF_ASC_NODE": 285.0296, "ARG_OF_PERICENTER": 342.8974, "MEAN_ANOMALY": 17.7878, "EPHEMERIS_TYPE": 0, "CLASSIFICATION_TYPE": "U", "NORAD_CAT_ID": 66990, "ELEMENT_SET_NO": 999, "REV_AT_EPOCH": 26, "BSTAR": 0, "MEAN_MOTION_DOT": 1.6e-07, "MEAN_MOTION_DDOT": 0}, "tle": {"line1": "1 66990U 25290A   25357.35311041  .00000016  00000+0  00000+0 0  9993", "line2": "2 66990   1.9618 285.0296 0003420 342.8974  17.7878  1.00271237   264"}}, "geometry": {"type": "Point", "coordinates": [-142.26929457414252, -1.8196488700649707]}}, {"type": "Feature", "properties": {"norad_id": 66991, "name": "CZ-3B R/B", "group": "last-30-days", "lat": 8.790514075054668, "lon": -46.29761369736224, "alt_km": 32545.185844814016, "timestamp": "2025-12-24T03:53:28.364129+00:00", "meta": {"OBJECT_NAME": "CZ-3B R/B", "OBJECT_ID": "2025-290B", "EPOCH": "2025-12-15T17:23:33.043200", "MEAN_MOTION": 2.38388611, "ECCENTRICITY": 0.7240884, "INCLINATION": 28.4636, "RA_OF_ASC_NODE": 300.4666, "ARG_OF_PERICENTER": 182.7002, "MEAN_ANOMALY": 168.625, "EPHEMERIS_TYPE": 0, "CLASSIFICATION_TYPE": "U", "NORAD_CAT_ID": 66991, "ELEMENT_SET_NO": 999, "REV_AT_EPOCH": 16, "BSTAR": 0.00075879, "MEAN_MOTION_DOT": 0.00057911, "MEAN_MOTION_DDOT": -2.0514e-07}, "tle": {"line1": "1 66991U 25290B   25349.72468800  .00057911 -20514-6  75879-3 0  9998", "line2": "2 66991  28.4636 300.4666 7240884 182.7002 168.6250  2.38388611   165"}}, "geometry": {"type": "Point", "coordinates": [-46.29761369736224, 8.790514075054668]}}, {"type": "Feature", "properties": {"norad_id": 66993, "name": "2025-292A", "group": "last-30-days", "lat": -80.91296122807898, "lon": -166.5799406788435, "alt_km": 551.8977932337475, "timestamp": "2025-12-24T03:53:28.364140+00:00", "meta": {"OBJECT_NAME": "2025-292A", "OBJECT_ID": "2025-292A", "EPOCH": "2025-12-23T18:44:08.261088", "MEAN_MOTION": 15.04572235, "ECCENTRICITY": 0.0014416, "INCLINATION": 97.6503, "RA_OF_ASC_NODE": 70.2243, "ARG_OF_PERICENTER": 232.1958, "MEAN_ANOMALY": 127.7964, "EPHEMERIS_TYPE": 0, "CLASSIFICATION_TYPE": "U", "NORAD_CAT_ID": 66993, "ELEMENT_SET_NO": 999, "REV_AT_EPOCH": 205, "BSTAR": 0.0002694, "MEAN_MOTION_DOT": 3.725e-05, "MEAN_MOTION_DDOT": 0}, "tle": {"line1": "1 66993U 25292A   25357.78065117  .00003725  00000+0  26940-3 0  9990", "line2": "2 66993  97.6503  70.2243 0014416 232.1958 127.7964 15.04572235  2056"}}, "geometry": {"type": "Point", "coordinates": [-166.5799406788435, -80.91296122807898]}}, {"type": "Feature", "properties": {"norad_id": 66994, "name": "2025-292B", "group": "last-30-days", "lat": -81.89172017505494, "lon": 179.9423427216366, "alt_km": 552.0679138406749, "timestamp": "2025-12-24T03:53:28.364150+00:00", "meta": {"OBJECT_NAME": "2025-292B", "OBJECT_ID": "2025-292B", "EPOCH": "2025-12-23T18:43:33.638016", "MEAN_MOTION": 15.04619327, "ECCENTRICITY": 0.00142, "INCLINATION": 97.6512, "RA_OF_ASC_NODE": 70.2261, "ARG_OF_PERICENTER": 232.5181, "MEAN_ANOMALY": 127.4754, "EPHEMERIS_TYPE": 0, "CLASSIFICATION_TYPE": "U", "NORAD_CAT_ID": 66994, "ELEMENT_SET_NO": 999, "REV_AT_EPOCH": 205, "BSTAR": 0.0003182, "MEAN_MOTION_DOT": 4.417e-05, "MEAN_MOTION_DDOT": 0}, "tle": {"line1": "1 66994U 25292B   25357.78025044  .00004417  00000+0  31820-3 0  9998", "line2": "2 66994  97.6512  70.2261 0014200 232.5181 127.4754 15.04619327  2058"}}, "geometry": {"type": "Point", "coordinates": [179.9423427216366, -81.89172017505494]}}, {"type": "Feature", "properties": {"norad_id": 66995, "name": "2025-292C", "group": "last-30-days", "lat": -82.1353578181717, "lon": 173.9299290122979, "alt_km": 551.8499831713098, "timestamp": "2025-12-24T03:53:28.364160+00:00", "meta": {"OBJECT_NAME": "2025-292C", "OBJECT_ID": "2025-292C", "EPOCH": "2025-12-23T18:43:20.397216", "MEAN_MOTION": 15.04649859, "ECCENTRICITY": 0.0014508, "INCLINATION": 97.6502, "RA_OF_ASC_NODE": 70.2249, "ARG_OF_PERICENTER": 232.9145, "MEAN_ANOMALY": 127.0756, "EPHEMERIS_TYPE": 0, "CLASSIFICATION_TYPE": "U", "NORAD_CAT_ID": 66995, "ELEMENT_SET_NO": 999, "REV_AT_EPOCH": 205, "BSTAR": 0.00036639, "MEAN_MOTION_DOT": 5.101e-05, "MEAN_MOTION_DDOT": 0}, "tle": {"line1": "1 66995U 25292C   25357.78009719  .00005101  00000+0  36639-3 0  9994", "line2": "2 66995  97.6502  70.2249 0014508 232.9145 127.0756 15.04649859  2050"}}, "geometry": {"type": "Point", "coordinates": [173.9299290122979, -82.1353578181717]}}, {"type": "Feature", "properties": {"norad_id": 66996, "name": "2025-292D", "group": "last-30-days", "lat": -82.34452952848108, "lon": 159.90104348599127, "alt_km": 552.2302824345934, "timestamp": "2025-12-24T03:53:28.364170+00:00", "meta": {"OBJECT_NAME": "2025-292D", "OBJECT_ID": "2025-292D", "EPOCH": "2025-12-23T18:42:50.272128", "MEAN_MOTION": 15.04666144, "ECCENTRICITY": 0.0013631, "INCLINATION": 97.6497, "RA_OF_ASC_NODE": 70.2245, "ARG_OF_PERICENTER": 235.471, "MEAN_ANOMALY": 124.523, "EPHEMERIS_TYPE": 0, "CLASSIFICATION_TYPE": "U", "NORAD_CAT_ID": 66996, "ELEMENT_SET_NO": 999, "REV_AT_EPOCH": 205, "BSTAR": 0.00024859, "MEAN_MOTION_DOT": 3.441e-05, "MEAN_MOTION_DDOT": 0}, "tle": {"line1": "1 66996U 25292D   25357.77974852  .00003441  00000+0  24859-3 0  9999", "line2": "2 66996  97.6497  70.2245 0013631 235.4710 124.5230 15.04666144  2057"}}, "geometry": {"type": "Point", "coordinates": [159.90104348599127, -82.34452952848108]}}, {"type": "Feature", "properties": {"norad_id": 66997, "name": "2025-292E", "group": "last-30-days", "lat": -81.24224655373773, "lon": 131.38016916413855, "alt_km": 552.0689521344457, "timestamp": "2025-12-24T03:53:28.364180+00:00", "meta": {"OBJECT_NAME": "2025-292E", "OBJECT_ID": "2025-292E", "EPOCH": "2025-12-23T18:41:45.595680", "MEAN_MOTION": 15.04755239, "ECCENTRICITY": 0.0014017, "INCLINATION": 97.6517, "RA_OF_ASC_NODE": 70.2289, "ARG_OF_PERICENTER": 236.4212, "MEAN_ANOMALY": 123.5677, "EPHEMERIS_TYPE": 0, "CLASSIFICATION_TYPE": "U", "NORAD_CAT_ID": 66997, "ELEMENT_SET_NO": 999, "REV_AT_EPOCH": 204, "BSTAR": 0.00027468, "MEAN_MOTION_DOT": 3.818e-05, "MEAN_MOTION_DDOT": 0}, "tle": {"line1": "1 66997U 25292E   25357.77899995  .00003818  00000+0  27468-3 0  9991", "line2": "2 66997  97.6517  70.2289 0014017 236.4212 123.5677 15.04755239  2043"}}, "geometry": {"type": "Point", "coordinates": [131.38016916413855, -81.24224655373773]}}, {"type": "Feature", "properties": {"norad_id": 66998, "name": "2025-292F", "group": "last-30-days", "lat": -75.44002088725902, "lon": 101.79533690003746, "alt_km": 551.7702613092351, "timestamp": "2025-12-24T03:53:28.364192+00:00", "meta": {"OBJECT_NAME": "2025-292F", "OBJECT_ID": "2025-292F", "EPOCH": "2025-12-23T18:39:39.246048", "MEAN_MOTION": 15.04933242, "ECCENTRICITY": 0.001515, "INCLINATION": 97.6536, "RA_OF_ASC_NODE": 70.2339, "ARG_OF_PERICENTER": 237.448, "MEAN_ANOMALY": 122.5284, "EPHEMERIS_TYPE": 0, "CLASSIFICATION_TYPE": "U", "NORAD_CAT_ID": 66998, "ELEMENT_SET_NO": 999, "REV_AT_EPOCH": 205, "BSTAR": 0.00038106, "MEAN_MOTION_DOT": 5.349e-05, "MEAN_MOTION_DDOT": 0}, "tle": {"line1": "1 66998U 25292F   25357.77753757  .00005349  00000+0  38106-3 0  9999", "line2": "2 66998  97.6536  70.2339 0015150 237.4480 122.5284 15.04933242  2054"}}, "geometry": {"type": "Point", "coordinates": [101.79533690003746, -75.44002088725902]}}, {"type": "Feature", "properties": {"norad_id": 66999, "name": "2025-292G", "group": "last-30-days", "lat": -72.65869280195338, "lon": 96.12985692521775, "alt_km": 551.9417134791292, "timestamp": "2025-12-24T03:53:28.364202+00:00", "meta": {"OBJECT_NAME": "2025-292G", "OBJECT_ID": "2025-292G", "EPOCH": "2025-12-23T18:38:49.720704", "MEAN_MOTION": 15.04997129, "ECCENTRICITY": 0.0014666, "INCLINATION": 97.6545, "RA_OF_ASC_NODE": 70.236, "ARG_OF_PERICENTER": 239.4528, "MEAN_ANOMALY": 120.5251, "EPHEMERIS_TYPE": 0, "CLASSIFICATION_TYPE": "U", "NORAD_CAT_ID": 66999, "ELEMENT_SET_NO": 999, "REV_AT_EPOCH": 205, "BSTAR": 0.00038297, "MEAN_MOTION_DOT": 5.385e-05, "MEAN_MOTION_DDOT": 0}, "tle": {"line1": "1 66999U 25292G   25357.77696436  .00005385  00000+0  38297-3 0  9991", "line2": "2 66999  97.6545  70.2360 0014666 239.4528 120.5251 15.04997129  2051"}}, "geometry": {"type": "Point", "coordinates": [96.12985692521775, -72.65869280195338]}}]}